LINK
1 42714U 98067LV  17218.17457288  .00020317  00000-0  28558-3 0  9993
2 42714  51.6394 148.2049 0003776  89.8060 270.3364 15.56663338 12408
CSUNSAT 1
1 42715U 98067LW  17218.18522785  .00013281  00000-0  19213-3 0  9990
2 42715  51.6393 148.2743 0005673  80.2152 279.9480 15.56240058 12295
UPSAT
1 42716U 98067LX  17218.16313000  .00018367  00000-0  25661-3 0  9991
2 42716  51.6393 148.1292 0005349 140.4693 219.6690 15.56896118 12426
SPACECUBE
1 42717U 98067LY  17218.17196230  .00015038  00000-0  21398-3 0  9992
2 42717  51.6397 148.1880 0005298 141.4626 218.6745 15.56569798 11660
HOOPOE
1 42718U 98067LZ  17218.16794275  .00017340  00000-0  24402-3 0  9992
2 42718  51.6398 148.1621 0005346 139.9453 220.1934 15.56746785 11660
CHALLENGER
1 42721U 98067MA  17218.23968303  .00020185  00000-0  28108-3 0  9997
2 42721  51.6396 147.8882 0008763 126.2326 233.9477 15.56890602 11371
NJUST-1
1 42722U 98067MB  17218.19573882  .00012503  00000-0  18255-3 0  9994
2 42722  51.6396 148.3447 0008445 128.2663 231.9089 15.56033154 11365
UNSW-ECO
1 42723U 98067MC  17217.41705387  .00017927  00000-0  25520-3 0  9994
2 42723  51.6395 152.1450 0008515 124.0001 236.1801 15.56385991 11223
DUTHSAT
1 42724U 98067MD  17218.18117217  .00020131  00000-0  28197-3 0  9993
2 42724  51.6395 148.2480 0007705 128.0366 232.1322 15.56743959 11261
LILACSAT-1
1 42725U 98067ME  17218.19813231  .00014241  00000-0  20692-3 0  9991
2 42725  51.6399 148.3617 0007470 130.1576 230.0070 15.56040249 11264
NSIGHT-1
1 42726U 98067MF  17218.20986674  .00008579  00000-0  13007-3 0  9995
2 42726  51.6400 148.4406 0007326 131.7426 228.4193 15.55494477 11279
SNUSAT-1
1 42727U 98067MG  17218.19734640  .00013355  00000-0  19422-3 0  9993
2 42727  51.6392 148.3526 0009171  95.9088 264.2949 15.56065475 11233
QBITO
1 42728U 98067MH  17218.18946457  .00014509  00000-0  20864-3 0  9998
2 42728  51.6400 148.3062 0004631 130.9514 229.1879 15.56318997 11073
AALTO-2
1 42729U 98067MJ  17218.06090197  .00015715  00000-0  22538-3 0  9997
2 42729  51.6397 148.9462 0004640 130.7247 229.4148 15.56319211 11061
SUSAT
1 42730U 98067MK  17218.19126206  .00013782  00000-0  19910-3 0  9996
2 42730  51.6396 148.3158 0004713 129.9126 230.2280 15.56242923 11078
I-INSPIRE II
1 42731U 98067ML  17218.18624726  .00017299  00000-0  24581-3 0  9993
2 42731  51.6389 148.2770 0008672  85.2158 274.9824 15.56463560 11124
POLYITAN-2-SAU
1 42732U 98067MM  17217.93108060  .00016960  00000-0  24208-3 0  9994
2 42732  51.6388 149.5730 0008660  83.6988 276.4990 15.56357388 11080
SNUSAT-1B
1 42733U 98067MN  17218.19213872  .00014383  00000-0  20742-3 0  9998
2 42733  51.6391 148.3169 0008504  86.0124 274.1840 15.56227689 11128
EXALTA-1
1 42734U 98067MP  17217.99344665  .00018312  00000-0  25950-3 0  9993
2 42734  51.6390 149.2408 0010279 105.5316 254.6812 15.56474800 11048
AOXIANG-1
1 42735U 98067MQ  17218.19441132  .00011939  00000-0  17430-3 0  9996
2 42735  51.6396 148.3350 0009151 125.7433 234.4411 15.56081896 12492
BEEAGLESAT
1 42736U 98067MR  17218.19410951  .00013966  00000-0  20221-3 0  9996
2 42736  51.6396 148.3333 0009104 124.8124 235.3725 15.56141051 11182
ATLANTIS
1 42737U 98067MS  17218.22523714  .00029640  00000-0  39786-3 0  9995
2 42737  51.6388 147.7901 0009466 121.6136 238.5781 15.57629737 11086
PROGRESS-MS 06
1 42756U 17033A   17217.61027778  .00000843  00000-0  19941-4 0  9997
2 42756  51.6416 151.9450 0006354 106.6795 244.1927 15.54255080 69432
ISS DEB (ROSA)
1 42813U 98067MT  17218.16641630  .00014228  00000-0  20815-3 0  9990
2 42813  51.6393 148.8978 0006448 102.5571 257.6142 15.55860330 69531
